{"type": "FeatureCollection", "features": [ {"type": "Feature", "properties": {"norad_id": 33917, "name": "COSMOS 2251 DEB", "group": "cosmos-2251-debris", "lat": 23.348679712946318, "lon": -75.94689035109054, "alt_km": 855.3471621360668, "timestamp": "2025-12-19T14:48:36.641077+00:00", "meta": {"OBJECT_NAME": "COSMOS 2251 DEB", "OBJECT_ID": "1993-036DW", "EPOCH": "2025-12-18T16:59:18.770496", "MEAN_MOTION": 13.69371042, "ECCENTRICITY": 0.03313075, "INCLINATION": 74.1071, "RA_OF_ASC_NODE": 112.6077, "ARG_OF_PERICENTER": 212.2721, "MEAN_ANOMALY": 145.7744, "EPHEMERIS_TYPE": 0, "CLASSIFICATION_TYPE": "U", "NORAD_CAT_ID": 33917, "ELEMENT_SET_NO": 999, "REV_AT_EPOCH": 83815, "BSTAR": 0.00062113677, "MEAN_MOTION_DOT": 7.71e-06, "MEAN_MOTION_DDOT": 0}, "tle": {"line1": "1 33917U 93036DW  25352.70785614  .00000771  00000+0  62114-3 0  9990", "line2": "2 33917  74.1071 112.6077 0331307 212.2721 145.7744 13.69371042838156"}}, "geometry": {"type": "Point", "coordinates": [-75.94689035109054, 23.348679712946318]}}, {"type": "Feature", "properties": {"norad_id": 33920, "name": "COSMOS 2251 DEB", "group": "cosmos-2251-debris", "lat": -70.58922145974262, "lon": -128.83381524473774, "alt_km": 678.8505640866033, "timestamp": "2025-12-19T14:48:36.641087+00:00", "meta": {"OBJECT_NAME": "COSMOS 2251 DEB", "OBJECT_ID": "1993-036DZ", "EPOCH": "2025-12-19T05:17:26.363328", "MEAN_MOTION": 14.58372646, "ECCENTRICITY": 0.00379894, "INCLINATION": 74.0621, "RA_OF_ASC_NODE": 286.111, "ARG_OF_PERICENTER": 291.8205, "MEAN_ANOMALY": 67.892, "EPHEMERIS_TYPE": 0, "CLASSIFICATION_TYPE": "U", "NORAD_CAT_ID": 33920, "ELEMENT_SET_NO": 999, "REV_AT_EPOCH": 88209, "BSTAR": 0.0011866275, "MEAN_MOTION_DOT": 5.525e-05, "MEAN_MOTION_DDOT": 0}, "tle": {"line1": "1 33920U 93036DZ  25353.22044402  .00005525  00000+0  11866-2 0  9994", "line2": "2 33920  74.0621 286.1110 0037989 291.8205  67.8920 14.58372646882096"}}, "geometry": {"type": "Point", "coordinates": [-128.83381524473774, -70.58922145974262]}}, {"type": "Feature", "properties": {"norad_id": 33922, "name": "COSMOS 2251 DEB", "group": "cosmos-2251-debris", "lat": -24.14650961955613, "lon": -37.76387598906545, "alt_km": 719.619980476079, "timestamp": "2025-12-19T14:48:36.641098+00:00", "meta": {"OBJECT_NAME": "COSMOS 2251 DEB", "OBJECT_ID": "1993-036EB", "EPOCH": "2025-12-18T20:20:22.617600", "MEAN_MOTION": 14.49528312, "ECCENTRICITY": 0.00231862, "INCLINATION": 74.0466, "RA_OF_ASC_NODE": 136.311, "ARG_OF_PERICENTER": 246.1835, "MEAN_ANOMALY": 264.6499, "EPHEMERIS_TYPE": 0, "CLASSIFICATION_TYPE": "U", "NORAD_CAT_ID": 33922, "ELEMENT_SET_NO": 999, "REV_AT_EPOCH": 88666, "BSTAR": 0.00036559995, "MEAN_MOTION_DOT": 1.379e-05, "MEAN_MOTION_DDOT": 0}, "tle": {"line1": "1 33922U 93036EB  25352.84748400  .00001379  00000+0  36560-3 0  9994", "line2": "2 33922  74.0466 136.3110 0023186 246.1835 264.6499 14.49528312886665"}}, "geometry": {"type": "Point", "coordinates": [-37.76387598906545, -24.14650961955613]}}, {"type": "Feature", "properties": {"norad_id": 33924, "name": "COSMOS 2251 DEB", "group": "cosmos-2251-debris", "lat": -14.444701226644312, "lon": 83.40957818797048, "alt_km": 1107.8323703200476, "timestamp": "2025-12-19T14:48:36.641109+00:00", "meta": {"OBJECT_NAME": "COSMOS 2251 DEB", "OBJECT_ID": "1993-036ED", "EPOCH": "2025-12-19T04:54:50.147712", "MEAN_MOTION": 13.50233639, "ECCENTRICITY": 0.04039077, "INCLINATION": 73.9135, "RA_OF_ASC_NODE": 259.8095, "ARG_OF_PERICENTER": 294.1244, "MEAN_ANOMALY": 61.8118, "EPHEMERIS_TYPE": 0, "CLASSIFICATION_TYPE": "U", "NORAD_CAT_ID": 33924, "ELEMENT_SET_NO": 999, "REV_AT_EPOCH": 82826, "BSTAR": 0.00042839453, "MEAN_MOTION_DOT": 4.3e-06, "MEAN_MOTION_DDOT": 0}, "tle": {"line1": "1 33924U 93036ED  25353.20474708  .00000430  00000+0  42839-3 0  9997", "line2": "2 33924  73.9135 259.8095 0403907 294.1244  61.8118 13.50233639828264"}}, "geometry": {"type": "Point", "coordinates": [83.40957818797048, -14.444701226644312]}}, {"type": "Feature", "properties": {"norad_id": 33928, "name": "COSMOS 2251 DEB", "group": "cosmos-2251-debris", "lat": -2.8788210488361416, "lon": 38.786339794053525, "alt_km": 697.1514750101496, "timestamp": "2025-12-19T14:48:36.641120+00:00", "meta": {"OBJECT_NAME": "COSMOS 2251 DEB", "OBJECT_ID": "1993-036EH", "EPOCH": "2025-12-19T03:12:44.311680", "MEAN_MOTION": 14.47415721, "ECCENTRICITY": 0.00617856, "INCLINATION": 73.9256, "RA_OF_ASC_NODE": 40.5266, "ARG_OF_PERICENTER": 333.3041, "MEAN_ANOMALY": 26.4939, "EPHEMERIS_TYPE": 0, "CLASSIFICATION_TYPE": "U", "NORAD_CAT_ID": 33928, "ELEMENT_SET_NO": 999, "REV_AT_EPOCH": 88737, "BSTAR": 0.00018752479, "MEAN_MOTION_DOT": 6.75e-06, "MEAN_MOTION_DDOT": 0}, "tle": {"line1": "1 33928U 93036EH  25353.13384620  .00000675  00000+0  18752-3 0  9994", "line2": "2 33928  73.9256  40.5266 0061785 333.3041  26.4939 14.47415721887378"}}, "geometry": {"type": "Point", "coordinates": [38.786339794053525, -2.8788210488361416]}}, {"type": "Feature", "properties": {"norad_id": 33932, "name": "COSMOS 2251 DEB", "group": "cosmos-2251-debris", "lat": -71.25541089507698, "lon": -114.29283297611401, "alt_km": 772.8365935603388, "timestamp": "2025-12-19T14:48:36.641131+00:00", "meta": {"OBJECT_NAME": "COSMOS 2251 DEB", "OBJECT_ID": "1993-036EM", "EPOCH": "2025-12-19T05:10:04.532736", "MEAN_MOTION": 14.38775822, "ECCENTRICITY": 0.00356558, "INCLINATION": 74.0341, "RA_OF_ASC_NODE": 303.9739, "ARG_OF_PERICENTER": 18.5644, "MEAN_ANOMALY": 341.6802, "EPHEMERIS_TYPE": 0, "CLASSIFICATION_TYPE": "U", "NORAD_CAT_ID": 33932, "ELEMENT_SET_NO": 999, "REV_AT_EPOCH": 88091, "BSTAR": 0.00034362287, "MEAN_MOTION_DOT": 1.037e-05, "MEAN_MOTION_DDOT": 0}, "tle": {"line1": "1 33932U 93036EM  25353.21533024  .00001037  00000+0  34362-3 0  9990", "line2": "2 33932  74.0341 303.9739 0035655  18.5644 341.6802 14.38775822880914"}}, "geometry": {"type": "Point", "coordinates": [-114.29283297611401, -71.25541089507698]}}, {"type": "Feature", "properties": {"norad_id": 33933, "name": "COSMOS 2251 DEB", "group": "cosmos-2251-debris", "lat": -2.432784161299729, "lon": 46.90826389105304, "alt_km": 754.6454343049636, "timestamp": "2025-12-19T14:48:36.641141+00:00", "meta": {"OBJECT_NAME": "COSMOS 2251 DEB", "OBJECT_ID": "1993-036EN", "EPOCH": "2025-12-19T04:46:20.935488", "MEAN_MOTION": 14.334983, "ECCENTRICITY": 0.00708725, "INCLINATION": 74.0892, "RA_OF_ASC_NODE": 48.3646, "ARG_OF_PERICENTER": 54.8414, "MEAN_ANOMALY": 305.9349, "EPHEMERIS_TYPE": 0, "CLASSIFICATION_TYPE": "U", "NORAD_CAT_ID": 33933, "ELEMENT_SET_NO": 999, "REV_AT_EPOCH": 87877, "BSTAR": 0.00019502436, "MEAN_MOTION_DOT": 5.29e-06, "MEAN_MOTION_DDOT": 0}, "tle": {"line1": "1 33933U 93036EN  25353.19885342  .00000529  00000+0  19502-3 0  9995", "line2": "2 33933  74.0892  48.3646 0070872  54.8414 305.9349 14.33498300878779"}}, "geometry": {"type": "Point", "coordinates": [46.90826389105304, -2.432784161299729]}}, {"type": "Feature", "properties": {"norad_id": 33934, "name": "COSMOS 2251 DEB", "group": "cosmos-2251-debris", "lat": 27.879634980214302, "lon": 96.17722587800984, "alt_km": 705.2484477070575, "timestamp": "2025-12-19T14:48:36.641152+00:00", "meta": {"OBJECT_NAME": "COSMOS 2251 DEB", "OBJECT_ID": "1993-036EP", "EPOCH": "2025-12-19T06:26:58.416288", "MEAN_MOTION": 14.59159881, "ECCENTRICITY": 0.0015422, "INCLINATION": 74.0383, "RA_OF_ASC_NODE": 88.132, "ARG_OF_PERICENTER": 211.8789, "MEAN_ANOMALY": 148.1445, "EPHEMERIS_TYPE": 0, "CLASSIFICATION_TYPE": "U", "NORAD_CAT_ID": 33934, "ELEMENT_SET_NO": 999, "REV_AT_EPOCH": 88834, "BSTAR": 0.00060456713, "MEAN_MOTION_DOT": 2.825e-05, "MEAN_MOTION_DDOT": 0}, "tle": {"line1": "1 33934U 93036EP  25353.26873167  .00002825  00000+0  60457-3 0  9992", "line2": "2 33934  74.0383  88.1320 0015422 211.8789 148.1445 14.59159881888340"}}, "geometry": {"type": "Point", "coordinates": [96.17722587800984, 27.879634980214302]}}, {"type": "Feature", "properties": {"norad_id": 33936, "name": "COSMOS 2251 DEB", "group": "cosmos-2251-debris", "lat": -13.71524551976461, "lon": 20.329258794264913, "alt_km": 715.1293262249383, "timestamp": "2025-12-19T14:48:36.641162+00:00", "meta": {"OBJECT_NAME": "COSMOS 2251 DEB", "OBJECT_ID": "1993-036ER", "EPOCH": "2025-12-19T05:00:38.704320", "MEAN_MOTION": 14.60308873, "ECCENTRICITY": 0.0027106, "INCLINATION": 74.0181, "RA_OF_ASC_NODE": 25.1201, "ARG_OF_PERICENTER": 179.1007, "MEAN_ANOMALY": 181.0212, "EPHEMERIS_TYPE": 0, "CLASSIFICATION_TYPE": "U", "NORAD_CAT_ID": 33936, "ELEMENT_SET_NO": 999, "REV_AT_EPOCH": 88984, "BSTAR": 0.00043936294, "MEAN_MOTION_DOT": 2.104e-05, "MEAN_MOTION_DDOT": 0}, "tle": {"line1": "1 33936U 93036ER  25353.20878130  .00002104  00000+0  43936-3 0  9996", "line2": "2 33936  74.0181  25.1201 0027106 179.1007 181.0212 14.60308873889841"}}, "geometry": {"type": "Point", "coordinates": [20.329258794264913, -13.71524551976461]}}, {"type": "Feature", "properties": {"norad_id": 33938, "name": "COSMOS 2251 DEB", "group": "cosmos-2251-debris", "lat": -43.427171060025934, "lon": 30.048828811372854, "alt_km": 734.7129458934696, "timestamp": "2025-12-19T14:48:36.641172+00:00", "meta": {"OBJECT_NAME": "COSMOS 2251 DEB", "OBJECT_ID": "1993-036ET", "EPOCH": "2025-12-19T01:12:58.629312", "MEAN_MOTION": 14.46811558, "ECCENTRICITY": 0.00168342, "INCLINATION": 74.0438, "RA_OF_ASC_NODE": 195.3934, "ARG_OF_PERICENTER": 276.9952, "MEAN_ANOMALY": 239.7381, "EPHEMERIS_TYPE": 0, "CLASSIFICATION_TYPE": "U", "NORAD_CAT_ID": 33938, "ELEMENT_SET_NO": 999, "REV_AT_EPOCH": 88491, "BSTAR": 0.00032269434, "MEAN_MOTION_DOT": 1.144e-05, "MEAN_MOTION_DDOT": 0}, "tle": {"line1": "1 33938U 93036ET  25353.05067858  .00001144  00000+0  32269-3 0  9998", "line2": "2 33938  74.0438 195.3934 0016834 276.9952 239.7381 14.46811558884916"}}, "geometry": {"type": "Point", "coordinates": [30.048828811372854, -43.427171060025934]}}]}